COSMOS 2433 (720)       
1 32275C 07052A   20269.99979167  .00000000  00000-0  00000-0 0  2699
2 32275  66.0097  25.5765 0003650 211.9720 272.4557  2.13104318    11
COSMOS 2432 (719)       
1 32276C 07052B   20269.99979167  .00000000  00000-0  00000-0 0  2690
2 32276  66.0223  25.6670 0007941 325.7388 108.6421  2.13103564    12
COSMOS 2434 (721)       
1 32393C 07065A   20269.99979167 -.00000000  00000-0  00000-0 0  2695
2 32393  64.5422 262.9694 0000985 170.4768 201.7335  2.13103041    15
COSMOS 2436 (723)       
1 32395C 07065C   19331.99979167 -.00000010  00000-0  00000-0 0  3316
2 32395  64.6628 273.4180 0015428 335.5981 236.1653  2.13280743    12
COSMOS 2456 (730)       
1 36111C 09070A   20269.99979167 -.00000000  00000-0  00000-0 0  2695
2 36111  64.2362 142.6486 0002891 336.1928 209.5268  2.13103047    14
COSMOS 2457 (733)       
1 36112C 09070B   19331.99979167  .00000011  00000-0  00000-0 0  3315
2 36112  64.1929 152.9203 0006907 146.4578 270.9332  2.13101641    11
COSMOS 2459 (731)       
1 36400C 10007A   20269.99979167  .00000000  00000-0  00000-0 0  2697
2 36400  65.9062  24.5006 0017917  10.1676 332.5998  2.13103669    17
COSMOS 2460 (732)       
1 36402C 10007C   20247.99979167  .00000002  00000-0  00000-0 0  2473
2 36402  65.8887  25.1967 0002485 136.6362 191.9146  2.13101608    19
COSMOS 2464 (736)       
1 37139C 10041C   20269.99979167 -.00000000  00000-0  00000-0 0  2696
2 37139  64.1419 262.3583 0025822   4.9379 230.1265  2.13100838    16
COSMOS 2476 (744)       
1 37867C 11064A   20269.99979167 -.00000000  00000-0  00000-0 0  2690
2 37867  64.5342 143.7573 0018733 234.7976 211.4545  2.13101935    15
COSMOS 2477 (745)       
1 37868C 11064B   20269.99979167 -.00000000  00000-0  00000-0 0  2691
2 37868  64.5422 143.8150 0016311 235.4884  29.2324  2.13101753    11
COSMOS 2475 (743)       
1 37869C 11064C   20269.99979167 -.00000000  00000-0  00000-0 0  2692
2 37869  64.5496 143.8173 0019961 258.6697 323.5429  2.13102164    14
COSMOS 2485 (747)       
1 39155C 13019A   20269.99979167 -.00000000  00000-0  00000-0 0  2694
2 39155  64.7014 144.0485 0019367 230.0497 260.7651  2.13102074    12
COSMOS 2492 (754)       
1 39620C 14012A   20269.99979167  .00000000  00000-0  00000-0 0  2694
2 39620  65.7825  24.2306 0011277 321.4602 204.3446  2.13103232    19
COSMOS 2500 (755)       
1 40001C 14032A   20269.99979167  .00000000  00000-0  00000-0 0  2691
2 40001  65.7231  24.1387 0008061 194.1638 191.9449  2.13102482    14
COSMOS 2501 (702)       
1 40315C 14075A   20246.99979167  .00000001  00000-0  00000-0 0  2467
2 40315  63.8641 264.0765 0018067 211.6796 324.1857  2.13098881    18
COSMOS 2514 (751)       
1 41330C 16008A   20269.99979167  .00000000  00000-0  00000-0 0  2692
2 41330  65.5254  23.9861 0011340 205.9812   2.7536  2.13102852    13
COSMOS 2516 (753)       
1 41554C 16032A   20269.99979167 -.00000000  00000-0  00000-0 0  2698
2 41554  64.0809 263.3647 0014973 224.7847 234.9351  2.13101865    12
COSMOS 2522 (752)       
1 42939C 17055A   20269.99979167 -.00000000  00000-0  00000-0 0  2692
2 42939  64.3142 263.5747 0010186 249.3459  76.9608  2.13102002    13
COSMOS 2527 (756)       
1 43508C 18053A   20269.99979167 -.00000000  00000-0  00000-0 0  2694
2 43508  64.8658 143.9170 0006571 222.2195 136.0011  2.13102471    10
COSMOS 2529 (757)       
1 43687C 18086A   20269.99979167 -.00000000  00000-0  00000-0 0  2698
2 43687  64.5280 263.7213 0012496 267.9005  14.0186  2.13102137    11
COSMOS 2534 (758)       
1 44299C 19030A   20269.99979167 -.00000000  00000-0  00000-0 0  2698
2 44299  64.5982 263.5476 0015275 284.3089 132.6161  2.13101992    10
COSMOS 2544 (759)       
1 44850C 19088A   20269.99979167 -.00000000  00000-0  00000-0 0  2694
2 44850  64.8502 143.7828 0010101 263.0640 139.1474  2.13102273    16
COSMOS 2545 (760)       
1 45358C 20018A   19320.99979167 -.00000002  00000-0  00000-0 0  3209
2 45358  65.8070  35.0079 0005134  75.6998 123.1059  2.13101688    16
